{"fetched_at":"2026-07-23T17:55:10.095Z","source":"https://celestrak.org/NORAD/elements/gp.php?GROUP=planet&FORMAT=JSON","constellation":"skysat","records":[{"OBJECT_NAME":"SKYSAT-A","OBJECT_ID":"2013-066C","EPOCH":"2026-07-23T02:26:03.549408","CLASSIFICATION_TYPE":"U","MEAN_MOTION":15.13146983,"ECCENTRICITY":0.00212159,"INCLINATION":97.3796,"RA_OF_ASC_NODE":252.3539,"ARG_OF_PERICENTER":185.3381,"MEAN_ANOMALY":174.7628,"EPHEMERIS_TYPE":0,"NORAD_CAT_ID":39418,"ELEMENT_SET_NO":999,"REV_AT_EPOCH":69391,"BSTAR":0.00014028509,"MEAN_MOTION_DOT":0.00002435,"MEAN_MOTION_DDOT":0},{"OBJECT_NAME":"SKYSAT-B","OBJECT_ID":"2014-037D","EPOCH":"2026-07-21T14:53:10.114944","CLASSIFICATION_TYPE":"U","MEAN_MOTION":14.88102443,"ECCENTRICITY":0.00060203,"INCLINATION":98.3858,"RA_OF_ASC_NODE":163.5543,"ARG_OF_PERICENTER":153.0763,"MEAN_ANOMALY":207.0765,"EPHEMERIS_TYPE":0,"NORAD_CAT_ID":40072,"ELEMENT_SET_NO":999,"REV_AT_EPOCH":65108,"BSTAR":0.00010248307,"MEAN_MOTION_DOT":0.00000881,"MEAN_MOTION_DDOT":0},{"OBJECT_NAME":"SKYSAT-C1","OBJECT_ID":"2016-040C","EPOCH":"2026-07-23T00:48:00.612288","CLASSIFICATION_TYPE":"U","MEAN_MOTION":15.36845504,"ECCENTRICITY":0.00009771,"INCLINATION":96.9557,"RA_OF_ASC_NODE":233.8198,"ARG_OF_PERICENTER":185.7159,"MEAN_ANOMALY":174.4075,"EPHEMERIS_TYPE":0,"NORAD_CAT_ID":41601,"ELEMENT_SET_NO":999,"REV_AT_EPOCH":56337,"BSTAR":0.00026336859,"MEAN_MOTION_DOT":0.00009412,"MEAN_MOTION_DDOT":0},{"OBJECT_NAME":"SKYSAT-C4","OBJECT_ID":"2016-058B","EPOCH":"2026-07-23T01:16:29.641440","CLASSIFICATION_TYPE":"U","MEAN_MOTION":15.49634823,"ECCENTRICITY":0.00035625,"INCLINATION":96.9177,"RA_OF_ASC_NODE":224.347,"ARG_OF_PERICENTER":108.3009,"MEAN_ANOMALY":251.8631,"EPHEMERIS_TYPE":0,"NORAD_CAT_ID":41771,"ELEMENT_SET_NO":999,"REV_AT_EPOCH":55102,"BSTAR":0.00034723422,"MEAN_MOTION_DOT":0.00019147,"MEAN_MOTION_DDOT":0},{"OBJECT_NAME":"SKYSAT-C5","OBJECT_ID":"2016-058C","EPOCH":"2026-07-23T02:32:02.213088","CLASSIFICATION_TYPE":"U","MEAN_MOTION":15.33797689,"ECCENTRICITY":0.0003402,"INCLINATION":97.0456,"RA_OF_ASC_NODE":243.126,"ARG_OF_PERICENTER":142.5858,"MEAN_ANOMALY":217.5623,"EPHEMERIS_TYPE":0,"NORAD_CAT_ID":41772,"ELEMENT_SET_NO":999,"REV_AT_EPOCH":54925,"BSTAR":0.00022409363,"MEAN_MOTION_DOT":0.00007252,"MEAN_MOTION_DDOT":0},{"OBJECT_NAME":"SKYSAT-C2","OBJECT_ID":"2016-058D","EPOCH":"2026-07-23T07:54:04.473216","CLASSIFICATION_TYPE":"U","MEAN_MOTION":15.4282123,"ECCENTRICITY":0.00006619,"INCLINATION":97.0165,"RA_OF_ASC_NODE":225.0801,"ARG_OF_PERICENTER":273.3925,"MEAN_ANOMALY":86.7248,"EPHEMERIS_TYPE":0,"NORAD_CAT_ID":41773,"ELEMENT_SET_NO":999,"REV_AT_EPOCH":55062,"BSTAR":0.00027930384,"MEAN_MOTION_DOT":0.00012159,"MEAN_MOTION_DDOT":0},{"OBJECT_NAME":"SKYSAT-C3","OBJECT_ID":"2016-058E","EPOCH":"2026-07-23T00:38:22.706880","CLASSIFICATION_TYPE":"U","MEAN_MOTION":15.5397774,"ECCENTRICITY":0.00028887,"INCLINATION":96.9002,"RA_OF_ASC_NODE":233.5269,"ARG_OF_PERICENTER":123.8234,"MEAN_ANOMALY":236.3296,"EPHEMERIS_TYPE":0,"NORAD_CAT_ID":41774,"ELEMENT_SET_NO":999,"REV_AT_EPOCH":55167,"BSTAR":0.00039629242,"MEAN_MOTION_DOT":0.00025552,"MEAN_MOTION_DDOT":0},{"OBJECT_NAME":"SKYSAT-C11","OBJECT_ID":"2017-068A","EPOCH":"2026-07-22T16:26:34.592640","CLASSIFICATION_TYPE":"U","MEAN_MOTION":15.59645696,"ECCENTRICITY":0.00015064,"INCLINATION":97.4384,"RA_OF_ASC_NODE":354.1178,"ARG_OF_PERICENTER":150.3189,"MEAN_ANOMALY":209.8153,"EPHEMERIS_TYPE":0,"NORAD_CAT_ID":42987,"ELEMENT_SET_NO":999,"REV_AT_EPOCH":48877,"BSTAR":0.00039232622,"MEAN_MOTION_DOT":0.00031225,"MEAN_MOTION_DDOT":0},{"OBJECT_NAME":"SKYSAT-C10","OBJECT_ID":"2017-068B","EPOCH":"2026-07-22T19:43:05.162592","CLASSIFICATION_TYPE":"U","MEAN_MOTION":15.35228657,"ECCENTRICITY":0.00015443,"INCLINATION":97.4541,"RA_OF_ASC_NODE":341.0397,"ARG_OF_PERICENTER":109.9336,"MEAN_ANOMALY":250.2073,"EPHEMERIS_TYPE":0,"NORAD_CAT_ID":42988,"ELEMENT_SET_NO":999,"REV_AT_EPOCH":48782,"BSTAR":0.00032885609,"MEAN_MOTION_DOT":0.0001117,"MEAN_MOTION_DDOT":0},{"OBJECT_NAME":"SKYSAT-C9","OBJECT_ID":"2017-068C","EPOCH":"2026-07-23T07:40:29.192448","CLASSIFICATION_TYPE":"U","MEAN_MOTION":15.42362279,"ECCENTRICITY":0.00079441,"INCLINATION":97.446,"RA_OF_ASC_NODE":342.8295,"ARG_OF_PERICENTER":17.0072,"MEAN_ANOMALY":343.144,"EPHEMERIS_TYPE":0,"NORAD_CAT_ID":42989,"ELEMENT_SET_NO":999,"REV_AT_EPOCH":48832,"BSTAR":0.00029466124,"MEAN_MOTION_DOT":0.00012642,"MEAN_MOTION_DDOT":0},{"OBJECT_NAME":"SKYSAT-C8","OBJECT_ID":"2017-068D","EPOCH":"2026-07-23T07:46:18.741792","CLASSIFICATION_TYPE":"U","MEAN_MOTION":15.37611068,"ECCENTRICITY":0.00013124,"INCLINATION":97.4557,"RA_OF_ASC_NODE":341.4865,"ARG_OF_PERICENTER":107.4214,"MEAN_ANOMALY":252.7174,"EPHEMERIS_TYPE":0,"NORAD_CAT_ID":42990,"ELEMENT_SET_NO":999,"REV_AT_EPOCH":48786,"BSTAR":0.00028468871,"MEAN_MOTION_DOT":0.00010428,"MEAN_MOTION_DDOT":0},{"OBJECT_NAME":"SKYSAT-C7","OBJECT_ID":"2017-068E","EPOCH":"2026-07-23T07:38:44.654496","CLASSIFICATION_TYPE":"U","MEAN_MOTION":15.37559306,"ECCENTRICITY":0.00049583,"INCLINATION":97.4568,"RA_OF_ASC_NODE":342.4736,"ARG_OF_PERICENTER":351.7605,"MEAN_ANOMALY":8.3557,"EPHEMERIS_TYPE":0,"NORAD_CAT_ID":42991,"ELEMENT_SET_NO":999,"REV_AT_EPOCH":48792,"BSTAR":0.00028090896,"MEAN_MOTION_DOT":0.00010274,"MEAN_MOTION_DDOT":0},{"OBJECT_NAME":"SKYSAT-C6","OBJECT_ID":"2017-068F","EPOCH":"2026-07-23T02:02:15.569088","CLASSIFICATION_TYPE":"U","MEAN_MOTION":15.34270039,"ECCENTRICITY":0.00048122,"INCLINATION":97.4607,"RA_OF_ASC_NODE":342.0542,"ARG_OF_PERICENTER":69.2184,"MEAN_ANOMALY":290.9574,"EPHEMERIS_TYPE":0,"NORAD_CAT_ID":42992,"ELEMENT_SET_NO":999,"REV_AT_EPOCH":48782,"BSTAR":0.0003043931,"MEAN_MOTION_DOT":0.00010024,"MEAN_MOTION_DDOT":0},{"OBJECT_NAME":"SKYSAT-C12","OBJECT_ID":"2018-099AR","EPOCH":"2026-07-23T01:35:19.336128","CLASSIFICATION_TYPE":"U","MEAN_MOTION":15.49990549,"ECCENTRICITY":0.00046573,"INCLINATION":96.9256,"RA_OF_ASC_NODE":225.8847,"ARG_OF_PERICENTER":53.2214,"MEAN_ANOMALY":306.9466,"EPHEMERIS_TYPE":0,"NORAD_CAT_ID":43797,"ELEMENT_SET_NO":999,"REV_AT_EPOCH":42741,"BSTAR":0.00035059384,"MEAN_MOTION_DOT":0.00019581,"MEAN_MOTION_DDOT":0}]}
